start=new Date('2023-06-12T00:00:00.000Z').valueOf();
sats=[{"TLE_LINE2":"2 53479  97.6543 283.7503 0000655 131.4163 228.7117 15.01263703 45631","OBJECT_NAME":"STARLINK-4436","GP_ID":"233695288","RCS_SIZE":"LARGE","REF_FRAME":"TEME","MEAN_ELEMENT_THEORY":"SGP4","FILE":"3930529","OBJECT_TYPE":"PAYLOAD","EPHEMERIS_TYPE":"0","EPOCH":"2023-06-11T14:05:20.792544","BSTAR":"0.00003759000000","ARG_OF_PERICENTER":"131.4163","MEAN_MOTION":"15.01263703","PERIOD":"95.919","COUNTRY_CODE":"US","ELEMENT_SET_NO":"999","TLE_LINE1":"1 53479U 22099Q   23162.58704621  .00000424  00000-0  37590-4 0  9995","APOAPSIS":"563.455","DECAY_DATE":null,"INCLINATION":"97.6543","CLASSIFICATION_TYPE":"U","SEMIMAJOR_AXIS":"6941.135","TIME_SYSTEM":"UTC","REV_AT_EPOCH":"4563","SITE":"AFWTR","ECCENTRICITY":"0.00006550","MEAN_MOTION_DOT":"0.00000424","PERIAPSIS":"562.546","MEAN_ANOMALY":"228.7117","RA_OF_ASC_NODE":"283.7503","NORAD_CAT_ID":"53479","LAUNCH_DATE":"2022-08-12","MEAN_MOTION_DDOT":"0.0000000000000","CENTER_NAME":"EARTH","OBJECT_ID":"2022-099Q"},{"GP_ID":"233727434","TLE_LINE2":"2 53480  97.6550 283.9520 0001020 112.7141 247.4191 15.01261945 45666","OBJECT_NAME":"STARLINK-4442","RCS_SIZE":"LARGE","FILE":"3930737","MEAN_ELEMENT_THEORY":"SGP4","OBJECT_TYPE":"PAYLOAD","REF_FRAME":"TEME","EPOCH":"2023-06-11T18:58:37.147008","EPHEMERIS_TYPE":"0","BSTAR":"0.00001382100000","ARG_OF_PERICENTER":"112.7141","MEAN_MOTION":"15.01261945","PERIOD":"95.919","APOAPSIS":"563.714","COUNTRY_CODE":"US","TLE_LINE1":"1 53480U 22099R   23162.79070772  .00000119  00000-0  13821-4 0  9995","ELEMENT_SET_NO":"999","INCLINATION":"97.6550","SEMIMAJOR_AXIS":"6941.141","CLASSIFICATION_TYPE":"U","DECAY_DATE":null,"TIME_SYSTEM":"UTC","REV_AT_EPOCH":"4566","SITE":"AFWTR","MEAN_MOTION_DOT":"0.00000119","ECCENTRICITY":"0.00010200","MEAN_ANOMALY":"247.4191","RA_OF_ASC_NODE":"283.9520","PERIAPSIS":"562.298","LAUNCH_DATE":"2022-08-12","NORAD_CAT_ID":"53480","CENTER_NAME":"EARTH","OBJECT_ID":"2022-099R","MEAN_MOTION_DDOT":"0.0000000000000"},{"LAUNCH_DATE":"2022-08-12","NORAD_CAT_ID":"53481","OBJECT_ID":"2022-099S","CENTER_NAME":"EARTH","MEAN_MOTION_DDOT":"0.0000000000000","MEAN_MOTION_DOT":"0.00000371","ECCENTRICITY":"0.00006000","RA_OF_ASC_NODE":"283.7469","MEAN_ANOMALY":"164.6454","PERIAPSIS":"562.583","TIME_SYSTEM":"UTC","SITE":"AFWTR","REV_AT_EPOCH":"4563","APOAPSIS":"563.416","TLE_LINE1":"1 53481U 22099S   23162.58519272  .00000371  00000-0  33463-4 0  9990","ELEMENT_SET_NO":"999","COUNTRY_CODE":"US","CLASSIFICATION_TYPE":"U","SEMIMAJOR_AXIS":"6941.135","INCLINATION":"97.6537","DECAY_DATE":null,"MEAN_MOTION":"15.01263890","PERIOD":"95.919","ARG_OF_PERICENTER":"195.4752","BSTAR":"0.00003346300000","OBJECT_TYPE":"PAYLOAD","FILE":"3930529","MEAN_ELEMENT_THEORY":"SGP4","REF_FRAME":"TEME","EPOCH":"2023-06-11T14:02:40.651008","EPHEMERIS_TYPE":"0","GP_ID":"233695780","OBJECT_NAME":"STARLINK-4302","TLE_LINE2":"2 53481  97.6537 283.7469 0000600 195.4752 164.6454 15.01263890 45631","RCS_SIZE":"LARGE"},{"ARG_OF_PERICENTER":"237.2736","BSTAR":"-0.00000730820000","MEAN_MOTION":"15.02074252","PERIOD":"95.867","TLE_LINE2":"2 53482  97.6525 283.9539 0001010 237.2736 122.8392 15.02074252 45665","OBJECT_NAME":"STARLINK-4360","GP_ID":"233726436","RCS_SIZE":"LARGE","REF_FRAME":"TEME","OBJECT_TYPE":"PAYLOAD","FILE":"3930737","MEAN_ELEMENT_THEORY":"SGP4","EPHEMERIS_TYPE":"0","EPOCH":"2023-06-11T18:35:08.995488","ECCENTRICITY":"0.00010100","MEAN_MOTION_DOT":"-0.00000155","PERIAPSIS":"559.802","RA_OF_ASC_NODE":"283.9539","MEAN_ANOMALY":"122.8392","NORAD_CAT_ID":"53482","LAUNCH_DATE":"2022-08-12","MEAN_MOTION_DDOT":"0.0000000000000","OBJECT_ID":"2022-099T","CENTER_NAME":"EARTH","TLE_LINE1":"1 53482U 22099T   23162.77440967 -.00000155  00000-0 -73082-5 0  9990","ELEMENT_SET_NO":"999","COUNTRY_CODE":"US","APOAPSIS":"561.204","DECAY_DATE":null,"CLASSIFICATION_TYPE":"U","SEMIMAJOR_AXIS":"6938.638","INCLINATION":"97.6525","TIME_SYSTEM":"UTC","SITE":"AFWTR","REV_AT_EPOCH":"4566"},{"GP_ID":"233727187","OBJECT_NAME":"STARLINK-4401","TLE_LINE2":"2 53483  97.6535 283.9429 0000732 115.8798 244.2502 15.01261860 45668","RCS_SIZE":"LARGE","MEAN_ELEMENT_THEORY":"SGP4","FILE":"3930737","OBJECT_TYPE":"PAYLOAD","REF_FRAME":"TEME","EPOCH":"2023-06-11T18:31:57.370656","EPHEMERIS_TYPE":"0","BSTAR":"0.00000311690000","ARG_OF_PERICENTER":"115.8798","MEAN_MOTION":"15.01261860","PERIOD":"95.919","APOAPSIS":"563.514","COUNTRY_CODE":"US","ELEMENT_SET_NO":"999","TLE_LINE1":"1 53483U 22099U   23162.77219179 -.00000019  00000-0  31169-5 0  9998","INCLINATION":"97.6535","CLASSIFICATION_TYPE":"U","SEMIMAJOR_AXIS":"6941.141","DECAY_DATE":null,"TIME_SYSTEM":"UTC","REV_AT_EPOCH":"4566","SITE":"AFWTR","MEAN_MOTION_DOT":"-0.00000019","ECCENTRICITY":"0.00007320","MEAN_ANOMALY":"244.2502","RA_OF_ASC_NODE":"283.9429","PERIAPSIS":"562.498","LAUNCH_DATE":"2022-08-12","NORAD_CAT_ID":"53483","CENTER_NAME":"EARTH","OBJECT_ID":"2022-099U","MEAN_MOTION_DDOT":"0.0000000000000"},{"SITE":"AFWTR","REV_AT_EPOCH":"4566","TIME_SYSTEM":"UTC","DECAY_DATE":null,"CLASSIFICATION_TYPE":"U","SEMIMAJOR_AXIS":"6941.138","INCLINATION":"97.6530","TLE_LINE1":"1 53484U 22099V   23162.78329781  .00000173  00000-0  18061-4 0  9996","ELEMENT_SET_NO":"999","COUNTRY_CODE":"US","APOAPSIS":"563.896","MEAN_MOTION_DDOT":"0.0000000000000","OBJECT_ID":"2022-099V","CENTER_NAME":"EARTH","NORAD_CAT_ID":"53484","LAUNCH_DATE":"2022-08-12","PERIAPSIS":"562.110","RA_OF_ASC_NODE":"283.9414","MEAN_ANOMALY":"127.4044","ECCENTRICITY":"0.00012860","MEAN_MOTION_DOT":"0.00000173","EPHEMERIS_TYPE":"0","EPOCH":"2023-06-11T18:47:56.930784","REF_FRAME":"TEME","OBJECT_TYPE":"PAYLOAD","FILE":"3930737","MEAN_ELEMENT_THEORY":"SGP4","RCS_SIZE":"LARGE","TLE_LINE2":"2 53484  97.6530 283.9414 0001286 232.7063 127.4044 15.01262830 45668","OBJECT_NAME":"STARLINK-4426","GP_ID":"233727935","PERIOD":"95.919","MEAN_MOTION":"15.01262830","ARG_OF_PERICENTER":"232.7063","BSTAR":"0.00001806100000"},{"GP_ID":"233727684","TLE_LINE2":"2 53485  97.6535 283.9274 0003477 227.5340 132.5591 15.01260887 45666","OBJECT_NAME":"STARLINK-4430","RCS_SIZE":"LARGE","OBJECT_TYPE":"PAYLOAD","FILE":"3930737","MEAN_ELEMENT_THEORY":"SGP4","REF_FRAME":"TEME","EPOCH":"2023-06-11T18:39:56.886336","EPHEMERIS_TYPE":"0","ARG_OF_PERICENTER":"227.5340","BSTAR":"0.00001214400000","MEAN_MOTION":"15.01260887","PERIOD":"95.919","APOAPSIS":"565.423","TLE_LINE1":"1 53485U 22099W   23162.77774174  .00000097  00000-0  12144-4 0  9997","ELEMENT_SET_NO":"999","COUNTRY_CODE":"US","SEMIMAJOR_AXIS":"6941.144","CLASSIFICATION_TYPE":"U","INCLINATION":"97.6535","DECAY_DATE":null,"TIME_SYSTEM":"UTC","SITE":"AFWTR","REV_AT_EPOCH":"4566","MEAN_MOTION_DOT":"0.00000097","ECCENTRICITY":"0.00034770","RA_OF_ASC_NODE":"283.9274","MEAN_ANOMALY":"132.5591","PERIAPSIS":"560.596","LAUNCH_DATE":"2022-08-12","NORAD_CAT_ID":"53485","OBJECT_ID":"2022-099W","CENTER_NAME":"EARTH","MEAN_MOTION_DDOT":"0.0000000000000"},{"GP_ID":"233703717","TLE_LINE2":"2 53486  97.6516 283.7404 0002018 231.8849 128.2193 15.01270936 45870","OBJECT_NAME":"STARLINK-4431","RCS_SIZE":"LARGE","MEAN_ELEMENT_THEORY":"SGP4","FILE":"3930726","OBJECT_TYPE":"PAYLOAD","REF_FRAME":"TEME","EPOCH":"2023-06-11T13:57:20.330784","EPHEMERIS_TYPE":"0","BSTAR":"-0.00010576000000","ARG_OF_PERICENTER":"231.8849","MEAN_MOTION":"15.01270936","PERIOD":"95.919","APOAPSIS":"564.379","COUNTRY_CODE":"US","TLE_LINE1":"1 53486U 22099X   23162.58148531 -.00001418  00000-0 -10576-3 0  9995","ELEMENT_SET_NO":"999","INCLINATION":"97.6516","CLASSIFICATION_TYPE":"U","SEMIMAJOR_AXIS":"6941.113","DECAY_DATE":null,"TIME_SYSTEM":"UTC","REV_AT_EPOCH":"4587","SITE":"AFWTR","MEAN_MOTION_DOT":"-0.00001418","ECCENTRICITY":"0.00020180","MEAN_ANOMALY":"128.2193","RA_OF_ASC_NODE":"283.7404","PERIAPSIS":"561.577","LAUNCH_DATE":"2022-08-12","NORAD_CAT_ID":"53486","CENTER_NAME":"EARTH","OBJECT_ID":"2022-099X","MEAN_MOTION_DDOT":"0.0000000000000"},{"PERIOD":"95.926","MEAN_MOTION":"15.01152949","BSTAR":"-0.00104340000000","ARG_OF_PERICENTER":"222.3977","EPHEMERIS_TYPE":"0","EPOCH":"2023-06-11T18:34:46.432992","REF_FRAME":"TEME","FILE":"3930737","MEAN_ELEMENT_THEORY":"SGP4","OBJECT_TYPE":"PAYLOAD","RCS_SIZE":"LARGE","TLE_LINE2":"2 53487  97.6537 283.9189 0003532 222.3977 137.6974 15.01152949 45666","OBJECT_NAME":"STARLINK-4432","GP_ID":"233726687","MEAN_MOTION_DDOT":"0.0000000000000","CENTER_NAME":"EARTH","OBJECT_ID":"2022-099Y","NORAD_CAT_ID":"53487","LAUNCH_DATE":"2022-08-12","PERIAPSIS":"560.890","MEAN_ANOMALY":"137.6974","RA_OF_ASC_NODE":"283.9189","ECCENTRICITY":"0.00035320","MEAN_MOTION_DOT":"-0.00013399","REV_AT_EPOCH":"4566","SITE":"AFWTR","TIME_SYSTEM":"UTC","DECAY_DATE":null,"INCLINATION":"97.6537","SEMIMAJOR_AXIS":"6941.477","CLASSIFICATION_TYPE":"U","COUNTRY_CODE":"US","ELEMENT_SET_NO":"999","TLE_LINE1":"1 53487U 22099Y   23162.77414853 -.00013399  00000-0 -10434-2 0  9993","APOAPSIS":"565.794"},{"SITE":"AFWTR","REV_AT_EPOCH":"4566","TIME_SYSTEM":"UTC","CLASSIFICATION_TYPE":"U","SEMIMAJOR_AXIS":"6941.137","INCLINATION":"97.6523","DECAY_DATE":null,"APOAPSIS":"564.885","TLE_LINE1":"1 53488U 22099Z   23162.77959171  .00000373  00000-0  33662-4 0  9997","ELEMENT_SET_NO":"999","COUNTRY_CODE":"US","OBJECT_ID":"2022-099Z","CENTER_NAME":"EARTH","MEAN_MOTION_DDOT":"0.0000000000000","LAUNCH_DATE":"2022-08-12","NORAD_CAT_ID":"53488","RA_OF_ASC_NODE":"283.9332","MEAN_ANOMALY":"126.4750","PERIAPSIS":"561.119","MEAN_MOTION_DOT":"0.00000373","ECCENTRICITY":"0.00027130","EPOCH":"2023-06-11T18:42:36.723744","EPHEMERIS_TYPE":"0","OBJECT_TYPE":"PAYLOAD","FILE":"3930737","MEAN_ELEMENT_THEORY":"SGP4","REF_FRAME":"TEME","RCS_SIZE":"LARGE","GP_ID":"233727435","TLE_LINE2":"2 53488  97.6523 283.9332 0002713 233.6224 126.4750 15.01263168 45666","OBJECT_NAME":"STARLINK-4421","PERIOD":"95.919","MEAN_MOTION":"15.01263168","ARG_OF_PERICENTER":"233.6224","BSTAR":"0.00003366200000"}];
